{"fetched_at":"2026-07-09T08:01:27.804Z","source":"https://celestrak.org/NORAD/elements/gp.php?NAME=SENTINEL&FORMAT=JSON","constellation":"sentinel-6","records":[{"OBJECT_NAME":"SENTINEL-6A","OBJECT_ID":"2020-086A","EPOCH":"2026-07-08T22:43:18.798240","CLASSIFICATION_TYPE":"U","MEAN_MOTION":12.80930089,"ECCENTRICITY":0.0007817,"INCLINATION":66.0415,"RA_OF_ASC_NODE":89.8591,"ARG_OF_PERICENTER":269.9936,"MEAN_ANOMALY":90.0184,"EPHEMERIS_TYPE":0,"NORAD_CAT_ID":46984,"ELEMENT_SET_NO":999,"REV_AT_EPOCH":26311,"BSTAR":-0.000039406411,"MEAN_MOTION_DOT":-7e-7,"MEAN_MOTION_DDOT":0},{"OBJECT_NAME":"SENTINEL-6B","OBJECT_ID":"2025-264A","EPOCH":"2026-07-08T22:43:48.857664","CLASSIFICATION_TYPE":"U","MEAN_MOTION":12.80930094,"ECCENTRICITY":0.00078831,"INCLINATION":66.0415,"RA_OF_ASC_NODE":89.9844,"ARG_OF_PERICENTER":268.8169,"MEAN_ANOMALY":91.1943,"EPHEMERIS_TYPE":0,"NORAD_CAT_ID":66514,"ELEMENT_SET_NO":999,"REV_AT_EPOCH":2995,"BSTAR":-0.000039070104,"MEAN_MOTION_DOT":-7e-7,"MEAN_MOTION_DDOT":0}]}
