SENTINEL-6A             
1 46984U 20086A   26189.94674535 -.00000070  00000+0 -39406-4 0  9990
2 46984  66.0415  89.8591 0007817 269.9936  90.0184 12.80930089263117
SENTINEL-6B             
1 66514U 25264A   26189.94709326 -.00000070  00000+0 -39070-4 0  9998
2 66514  66.0415  89.9844 0007883 268.8169  91.1943 12.80930094 29952
